[{"OBJECT_NAME":"STARLINK-31281","OBJECT_ID":"2024-041D","EPOCH":"2026-03-09T02:11:31.125408","MEAN_MOTION":15.27562264,"ECCENTRICITY":8.558e-5,"INCLINATION":42.9991,"RA_OF_ASC_NODE":313.774,"ARG_OF_PERICENTER":184.1324,"MEAN_ANOMALY":175.9521,"EPHEMERIS_TYPE":0,"CLASSIFICATION_TYPE":"U","NORAD_CAT_ID":59077,"ELEMENT_SET_NO":999,"REV_AT_EPOCH":11423,"BSTAR":-3.9292039e-5,"MEAN_MOTION_DOT":-1.342e-5,"MEAN_MOTION_DDOT":0},{"OBJECT_NAME":"SL-3 R\/B","OBJECT_ID":"1982-027B","EPOCH":"2026-03-09T22:44:40.208640","MEAN_MOTION":15.28335844,"ECCENTRICITY":0.00065199,"INCLINATION":81.188,"RA_OF_ASC_NODE":37.4466,"ARG_OF_PERICENTER":276.581,"MEAN_ANOMALY":83.4683,"EPHEMERIS_TYPE":0,"CLASSIFICATION_TYPE":"U","NORAD_CAT_ID":13121,"ELEMENT_SET_NO":999,"REV_AT_EPOCH":39859,"BSTAR":0.00030526741,"MEAN_MOTION_DOT":8.453e-5,"MEAN_MOTION_DDOT":0}]
